1 90000           19337.16666667 -.00000081  00000-0 -17434-3 0 00002
2 90000 053.0539 201.9446 0007944 268.8659 113.5347 13.29211345000016
1 90001           19337.16666667 -.00000023  00000-0 -48813-4 0 00005
2 90001 053.0539 201.9446 0007945 268.8719 120.7286 13.29211288000013
1 90002           19337.16666667  .00000040  00000-0  86785-4 0 00003
2 90002 053.0539 201.9446 0007945 268.8783 127.9223 13.29211225000016
1 90003           19337.16666667  .00000103  00000-0  22151-3 0 00000
2 90003 053.0539 201.9446 0007945 268.8847 135.1160 13.29211163000010
1 90004           19337.16666667  .00000160  00000-0  34465-3 0 00005
2 90004 053.0539 201.9446 0007944 268.8907 142.3100 13.29211105000017
1 90005           19337.16666667  .00000207  00000-0  44637-3 0 00000
2 90005 053.0539 201.9446 0007944 268.8959 149.5048 13.29211057000011
1 90006           19337.16666667  .00000240  00000-0  51830-3 0 00001
2 90006 053.0540 201.9446 0007943 268.9003 156.7005 13.29211022000019
1 90007           19337.16666667  .00000257  00000-0  55399-3 0 00004
2 90007 053.0540 201.9446 0007942 268.9035 163.8973 13.29211005000018
1 90008           19337.16666667  .00000255  00000-0  54940-3 0 00004
2 90008 053.0540 201.9446 0007942 268.9056 171.0951 13.29211006000010
1 90009           19337.16666667  .00000233  00000-0  50319-3 0 00007
2 90009 053.0540 201.9446 0007941 268.9067 178.2941 13.29211027000013
1 90010           19337.16666667  .00000193  00000-0  41684-3 0 00009
2 90010 053.0540 201.9446 0007940 268.9067 185.4940 13.29211067000017
1 90011           19337.16666667  .00000137  00000-0  29448-3 0 00002
2 90011 053.0540 201.9446 0007940 268.9060 192.6946 13.29211126000013
1 90012           19337.16666667  .00000066  00000-0  14273-3 0 00004
2 90012 053.0540 201.9446 0007939 268.9048 199.8958 13.29211200000013
1 90013           19337.16666667 -.00000014  00000-0 -29669-4 0 00006
2 90013 053.0540 201.9446 0007939 268.9034 207.0971 13.29211284000018
1 90014           19337.16666667 -.00000099  00000-0 -21240-3 0 00006
2 90014 053.0540 201.9446 0007938 268.9021 214.2984 13.29211375000019
1 90015           19337.16666667 -.00000183  00000-0 -39427-3 0 00007
2 90015 053.0539 201.9446 0007938 268.9009 221.4995 13.29211467000018
1 90016           19337.16666667 -.00000262  00000-0 -56388-3 0 00001
2 90016 053.0539 201.9446 0007938 268.9000 228.7003 13.29211554000017
1 90017           19337.16666667 -.00000329  00000-0 -71030-3 0 00007
2 90017 053.0539 201.9446 0007937 268.8993 235.9009 13.29211632000010
1 90018           19337.16666667 -.00000382  00000-0 -82362-3 0 00007
2 90018 053.0539 201.9446 0007937 268.8988 243.1014 13.29211695000011
1 90019           19337.16666667 -.00000415  00000-0 -89564-3 0 00006
2 90019 053.0539 201.9446 0007937 268.8983 250.3019 13.29211740000013
1 90020           19337.16666667 -.00000427  00000-0 -92092-3 0 00001
2 90020 053.0539 201.9446 0007936 268.8972 257.5029 13.29211764000018
1 90021           19337.16666667 -.00000416  00000-0 -89699-3 0 00009
2 90021 053.0539 201.9446 0007936 268.8960 264.7042 13.29211764000011
1 90022           19337.16666667 -.00000382  00000-0 -82362-3 0 00002
2 90022 053.0539 201.9446 0007935 268.8942 271.9059 13.29211740000013
1 90023           19337.16666667 -.00000326  00000-0 -70376-3 0 00003
2 90023 053.0539 201.9446 0007935 268.8919 279.1083 13.29211694000013
1 90024           19337.16666667 -.00000252  00000-0 -54310-3 0 00002
2 90024 053.0539 201.9446 0007935 268.8889 286.3113 13.29211627000010
1 90025           19337.16666667 -.00000162  00000-0 -35007-3 0 00005
2 90025 053.0539 201.9446 0007935 268.8855 293.5147 13.29211543000018
1 90026           19337.16666667 -.00000062  00000-0 -13409-3 0 00007
2 90026 053.0539 201.9446 0007934 268.8816 300.7187 13.29211447000013
1 90027           19337.16666667  .00000043  00000-0  93322-4 0 00008
2 90027 053.0539 201.9446 0007934 268.8776 307.9228 13.29211343000019
1 90028           19337.16666667  .00000148  00000-0  31980-3 0 00006
2 90028 053.0539 201.9446 0007934 268.8735 315.1269 13.29211237000013
1 90029           19337.16666667  .00000247  00000-0  53322-3 0 00001
2 90029 053.0539 201.9446 0007935 268.8698 322.3308 13.29211134000013
1 90030           19337.16666667  .00000335  00000-0  72244-3 0 00005
2 90030 053.0539 201.9446 0007935 268.8665 329.5342 13.29211041000013
1 90031           19337.16666667  .00000407  00000-0  87779-3 0 00005
2 90031 053.0540 201.9446 0007935 268.8637 336.7370 13.29210961000016
1 90032           19337.16666667  .00000460  00000-0  99149-3 0 00009
2 90032 053.0540 201.9446 0007936 268.8615 343.9393 13.29210899000019
1 90033           19337.16666667  .00000491  00000-0  10582-2 0 00007
2 90033 053.0540 201.9446 0007936 268.8598 351.1410 13.29210857000015
1 90034           19337.16666667  .00000499  00000-0  10753-2 0 00006
2 90034 053.0540 201.9446 0007936 268.8586 358.3422 13.29210838000014
1 90035           19337.16666667  .00000484  00000-0  10430-2 0 00003
2 90035 053.0540 201.9446 0007937 268.8578 005.5430 13.29210841000011
1 90036           19337.16666667  .00000448  00000-0  96480-3 0 00004
2 90036 053.0540 201.9446 0007937 268.8572 012.7436 13.29210866000019
1 90037           19337.16666667  .00000393  00000-0  84648-3 0 00007
2 90037 053.0540 201.9446 0007937 268.8566 019.9442 13.29210910000019
1 90038           19337.16666667  .00000323  00000-0  69633-3 0 00008
2 90038 053.0540 201.9446 0007938 268.8559 027.1449 13.29210969000015
1 90039           19337.16666667  .00000243  00000-0  52434-3 0 00001
2 90039 053.0540 201.9446 0007938 268.8549 034.3458 13.29211040000016
1 90040           19337.16666667  .00000158  00000-0  34155-3 0 00008
2 90040 053.0539 201.9446 0007938 268.8536 041.5470 13.29211117000011
1 90041           19337.16666667  .00000074  00000-0  15934-3 0 00000
2 90041 053.0539 201.9446 0007939 268.8522 048.7484 13.29211195000018
1 90042           19337.16666667 -.00000005  00000-0 -11135-4 0 00007
2 90042 053.0539 201.9446 0007939 268.8509 055.9497 13.29211270000012
1 90043           19337.16666667 -.00000074  00000-0 -15960-3 0 00003
2 90043 053.0539 201.9446 0007940 268.8497 063.1508 13.29211335000017
1 90044           19337.16666667 -.00000129  00000-0 -27736-3 0 00009
2 90044 053.0539 201.9446 0007940 268.8490 070.3515 13.29211388000017
1 90045           19337.16666667 -.00000166  00000-0 -35835-3 0 00000
2 90045 053.0539 201.9446 0007941 268.8492 077.5512 13.29211425000019
1 90046           19337.16666667 -.00000185  00000-0 -39868-3 0 00002
2 90046 053.0539 201.9446 0007942 268.8504 084.7501 13.29211444000014
1 90047           19337.16666667 -.00000184  00000-0 -39731-3 0 00001
2 90047 053.0539 201.9446 0007943 268.8526 091.9479 13.29211445000015
1 90048           19337.16666667 -.00000165  00000-0 -35601-3 0 00003
2 90048 053.0539 201.9446 0007943 268.8560 099.1445 13.29211427000017
1 90049           19337.16666667 -.00000130  00000-0 -27924-3 0 00005
2 90049 053.0539 201.9446 0007944 268.8604 106.3400 13.29211393000012
